start=new Date('2022-02-02T00:00:00.000Z').valueOf();
sats=[{"MEAN_ELEMENT_THEORY":"SGP4","CLASSIFICATION_TYPE":"U","EPHEMERIS_TYPE":"0","OBJECT_TYPE":"PAYLOAD","ECCENTRICITY":"0.00017860","DECAY_DATE":null,"TLE_LINE2":"2 44917  53.0531 225.8215 0001786  69.8890 290.2291 15.06394604114257","OBJECT_ID":"2020-001D","PERIOD":"95.592","MEAN_MOTION_DDOT":"0.0000000000000","ARG_OF_PERICENTER":"69.8890","MEAN_MOTION_DOT":"0.00001292","FILE":"3289675","COUNTRY_CODE":"US","OBJECT_NAME":"STARLINK-1098","REF_FRAME":"TEME","SEMIMAJOR_AXIS":"6925.365","MEAN_ANOMALY":"290.2291","SITE":"AFETR","PERIAPSIS":"545.993","TLE_LINE1":"1 44917U 20001D   22032.93347122  .00001292  00000-0  10565-3 0  9992","LAUNCH_DATE":"2020-01-07","EPOCH":"2022-02-01T22:24:11.913408","NORAD_CAT_ID":"44917","INCLINATION":"53.0531","APOAPSIS":"548.467","TIME_SYSTEM":"UTC","RCS_SIZE":"LARGE","MEAN_MOTION":"15.06394604","GP_ID":"195121399","CENTER_NAME":"EARTH","RA_OF_ASC_NODE":"225.8215","ELEMENT_SET_NO":"999","REV_AT_EPOCH":"11425","BSTAR":"0.00010565000000"},{"TIME_SYSTEM":"UTC","APOAPSIS":"548.505","RCS_SIZE":"LARGE","MEAN_MOTION":"15.06391028","GP_ID":"195120655","CENTER_NAME":"EARTH","RA_OF_ASC_NODE":"226.3739","ELEMENT_SET_NO":"999","REV_AT_EPOCH":"11497","BSTAR":"0.00038048000000","TLE_LINE1":"1 44918U 20001E   22032.81183017  .00005389  00000-0  38048-3 0  9998","LAUNCH_DATE":"2020-01-07","EPOCH":"2022-02-01T19:29:02.126688","NORAD_CAT_ID":"44918","INCLINATION":"53.0509","OBJECT_NAME":"STARLINK-1099","REF_FRAME":"TEME","SEMIMAJOR_AXIS":"6925.376","MEAN_ANOMALY":"282.9905","SITE":"AFETR","PERIAPSIS":"545.977","MEAN_ELEMENT_THEORY":"SGP4","EPHEMERIS_TYPE":"0","CLASSIFICATION_TYPE":"U","OBJECT_TYPE":"PAYLOAD","ECCENTRICITY":"0.00018250","DECAY_DATE":null,"TLE_LINE2":"2 44918  53.0509 226.3739 0001825  77.1288 282.9905 15.06391028114973","OBJECT_ID":"2020-001E","MEAN_MOTION_DDOT":"0.0000000000000","PERIOD":"95.593","ARG_OF_PERICENTER":"77.1288","MEAN_MOTION_DOT":"0.00005389","FILE":"3289675","COUNTRY_CODE":"US"},{"PERIAPSIS":"545.844","SITE":"AFETR","REF_FRAME":"TEME","OBJECT_NAME":"STARLINK-1102","MEAN_ANOMALY":"287.3887","SEMIMAJOR_AXIS":"6925.343","OBJECT_ID":"2020-001G","DECAY_DATE":null,"TLE_LINE2":"2 44920  53.0537 226.2999 0001969  72.7317 287.3887 15.06401862114232","FILE":"3289675","COUNTRY_CODE":"US","MEAN_MOTION_DDOT":"0.0000000000000","PERIOD":"95.592","ARG_OF_PERICENTER":"72.7317","MEAN_MOTION_DOT":"0.00001653","MEAN_ELEMENT_THEORY":"SGP4","OBJECT_TYPE":"PAYLOAD","ECCENTRICITY":"0.00019690","EPHEMERIS_TYPE":"0","CLASSIFICATION_TYPE":"U","BSTAR":"0.00012986000000","REV_AT_EPOCH":"11423","RCS_SIZE":"LARGE","MEAN_MOTION":"15.06401862","APOAPSIS":"548.571","TIME_SYSTEM":"UTC","ELEMENT_SET_NO":"999","CENTER_NAME":"EARTH","GP_ID":"195120905","RA_OF_ASC_NODE":"226.2999","NORAD_CAT_ID":"44920","EPOCH":"2022-02-01T19:50:15.088992","INCLINATION":"53.0537","LAUNCH_DATE":"2020-01-07","TLE_LINE1":"1 44920U 20001G   22032.82656353  .00001653  00000-0  12986-3 0  9993"},{"EPOCH":"2022-02-01T20:22:07.370688","NORAD_CAT_ID":"44921","INCLINATION":"53.0525","TLE_LINE1":"1 44921U 20001H   22032.84869642  .00000383  00000-0  44659-4 0  9995","LAUNCH_DATE":"2020-01-07","REV_AT_EPOCH":"11421","BSTAR":"0.00004465900000","TIME_SYSTEM":"UTC","APOAPSIS":"548.808","MEAN_MOTION":"15.06393890","RCS_SIZE":"LARGE","CENTER_NAME":"EARTH","GP_ID":"195121157","RA_OF_ASC_NODE":"226.1955","ELEMENT_SET_NO":"999","DECAY_DATE":null,"TLE_LINE2":"2 44921  53.0525 226.1955 0002276  78.5900 281.5345 15.06393890114219","OBJECT_ID":"2020-001H","MEAN_MOTION_DDOT":"0.0000000000000","PERIOD":"95.593","MEAN_MOTION_DOT":"0.00000383","ARG_OF_PERICENTER":"78.5900","FILE":"3289675","COUNTRY_CODE":"US","MEAN_ELEMENT_THEORY":"SGP4","EPHEMERIS_TYPE":"0","CLASSIFICATION_TYPE":"U","OBJECT_TYPE":"PAYLOAD","ECCENTRICITY":"0.00022760","SITE":"AFETR","PERIAPSIS":"545.656","OBJECT_NAME":"STARLINK-1103","REF_FRAME":"TEME","SEMIMAJOR_AXIS":"6925.367","MEAN_ANOMALY":"281.5345"},{"SEMIMAJOR_AXIS":"6925.336","MEAN_ANOMALY":"286.4042","OBJECT_NAME":"STARLINK-1104","REF_FRAME":"TEME","SITE":"AFETR","PERIAPSIS":"545.961","EPHEMERIS_TYPE":"0","CLASSIFICATION_TYPE":"U","OBJECT_TYPE":"PAYLOAD","ECCENTRICITY":"0.00017910","MEAN_ELEMENT_THEORY":"SGP4","PERIOD":"95.592","MEAN_MOTION_DDOT":"0.0000000000000","MEAN_MOTION_DOT":"-0.00001065","ARG_OF_PERICENTER":"73.7144","COUNTRY_CODE":"US","FILE":"3289675","TLE_LINE2":"2 44922  53.0514 226.3413 0001791  73.7144 286.4042 15.06403954114230","DECAY_DATE":null,"OBJECT_ID":"2020-001J","RA_OF_ASC_NODE":"226.3413","GP_ID":"195121899","CENTER_NAME":"EARTH","ELEMENT_SET_NO":"999","TIME_SYSTEM":"UTC","APOAPSIS":"548.442","RCS_SIZE":"LARGE","MEAN_MOTION":"15.06403954","REV_AT_EPOCH":"11423","BSTAR":"-0.00005260400000","TLE_LINE1":"1 44922U 20001J   22032.81551033 -.00001065  00000-0 -52604-4 0  9994","LAUNCH_DATE":"2020-01-07","INCLINATION":"53.0514","EPOCH":"2022-02-01T19:34:20.092512","NORAD_CAT_ID":"44922"},{"BSTAR":"0.00012743000000","REV_AT_EPOCH":"11423","ELEMENT_SET_NO":"999","GP_ID":"195120156","CENTER_NAME":"EARTH","RA_OF_ASC_NODE":"226.2264","RCS_SIZE":"LARGE","MEAN_MOTION":"15.06401813","TIME_SYSTEM":"UTC","APOAPSIS":"548.452","INCLINATION":"53.0525","NORAD_CAT_ID":"44923","EPOCH":"2022-02-01T20:11:29.142528","LAUNCH_DATE":"2020-01-07","TLE_LINE1":"1 44923U 20001K   22032.84130952  .00001617  00000-0  12743-3 0  9991","PERIAPSIS":"545.964","SITE":"AFETR","MEAN_ANOMALY":"283.7049","SEMIMAJOR_AXIS":"6925.343","REF_FRAME":"TEME","OBJECT_NAME":"STARLINK-1106","COUNTRY_CODE":"US","FILE":"3289675","MEAN_MOTION_DDOT":"0.0000000000000","PERIOD":"95.592","MEAN_MOTION_DOT":"0.00001617","ARG_OF_PERICENTER":"76.4140","OBJECT_ID":"2020-001K","TLE_LINE2":"2 44923  53.0525 226.2264 0001797  76.4140 283.7049 15.06401813114237","DECAY_DATE":null,"ECCENTRICITY":"0.00017970","OBJECT_TYPE":"PAYLOAD","CLASSIFICATION_TYPE":"U","EPHEMERIS_TYPE":"0","MEAN_ELEMENT_THEORY":"SGP4"},{"CLASSIFICATION_TYPE":"U","EPHEMERIS_TYPE":"0","OBJECT_TYPE":"PAYLOAD","ECCENTRICITY":"0.00018920","MEAN_ELEMENT_THEORY":"SGP4","MEAN_MOTION_DOT":"0.00002510","PERIOD":"95.591","MEAN_MOTION_DDOT":"0.0000000000000","ARG_OF_PERICENTER":"78.4993","FILE":"3289675","COUNTRY_CODE":"US","DECAY_DATE":null,"TLE_LINE2":"2 44924  53.0525 225.9860 0001892  78.4993 281.6208 15.06410333114242","OBJECT_ID":"2020-001L","SEMIMAJOR_AXIS":"6925.317","MEAN_ANOMALY":"281.6208","OBJECT_NAME":"STARLINK-1111","REF_FRAME":"TEME","SITE":"AFETR","PERIAPSIS":"545.872","TLE_LINE1":"1 44924U 20001L   22032.89660931  .00002510  00000-0  18731-3 0  9998","LAUNCH_DATE":"2020-01-07","INCLINATION":"53.0525","EPOCH":"2022-02-01T21:31:07.044384","NORAD_CAT_ID":"44924","CENTER_NAME":"EARTH","GP_ID":"195120406","RA_OF_ASC_NODE":"225.9860","ELEMENT_SET_NO":"999","TIME_SYSTEM":"UTC","APOAPSIS":"548.492","RCS_SIZE":"LARGE","MEAN_MOTION":"15.06410333","REV_AT_EPOCH":"11424","BSTAR":"0.00018731000000"},{"REF_FRAME":"TEME","OBJECT_NAME":"STARLINK-1112","MEAN_ANOMALY":"291.9860","SEMIMAJOR_AXIS":"6925.368","PERIAPSIS":"545.774","SITE":"AFETR","MEAN_ELEMENT_THEORY":"SGP4","OBJECT_TYPE":"PAYLOAD","ECCENTRICITY":"0.00021070","CLASSIFICATION_TYPE":"U","EPHEMERIS_TYPE":"0","OBJECT_ID":"2020-001M","TLE_LINE2":"2 44925  53.0534 225.9128 0002107  68.1353 291.9860 15.06393718114241","DECAY_DATE":null,"COUNTRY_CODE":"US","FILE":"3289675","MEAN_MOTION_DDOT":"0.0000000000000","PERIOD":"95.593","MEAN_MOTION_DOT":"-0.00000775","ARG_OF_PERICENTER":"68.1353","RCS_SIZE":"LARGE","MEAN_MOTION":"15.06393718","APOAPSIS":"548.692","TIME_SYSTEM":"UTC","ELEMENT_SET_NO":"999","RA_OF_ASC_NODE":"225.9128","GP_ID":"195121657","CENTER_NAME":"EARTH","BSTAR":"-0.00003313700000","REV_AT_EPOCH":"11424","LAUNCH_DATE":"2020-01-07","TLE_LINE1":"1 44925U 20001M   22032.91135645 -.00000775  00000-0 -33137-4 0  9992","NORAD_CAT_ID":"44925","EPOCH":"2022-02-01T21:52:21.197280","INCLINATION":"53.0534"},{"OBJECT_NAME":"STARLINK-1113","REF_FRAME":"TEME","SEMIMAJOR_AXIS":"6927.851","MEAN_ANOMALY":"277.5649","SITE":"AFETR","PERIAPSIS":"548.532","MEAN_ELEMENT_THEORY":"SGP4","CLASSIFICATION_TYPE":"U","EPHEMERIS_TYPE":"0","OBJECT_TYPE":"PAYLOAD","ECCENTRICITY":"0.00017090","DECAY_DATE":null,"TLE_LINE2":"2 44926  53.0008 226.2041 0001709  82.5533 277.5649 15.05583830114951","OBJECT_ID":"2020-001N","PERIOD":"95.644","MEAN_MOTION_DDOT":"0.0000000000000","MEAN_MOTION_DOT":"-0.00000022","ARG_OF_PERICENTER":"82.5533","FILE":"3289675","COUNTRY_CODE":"US","TIME_SYSTEM":"UTC","APOAPSIS":"550.900","MEAN_MOTION":"15.05583830","RCS_SIZE":"LARGE","GP_ID":"195121400","RA_OF_ASC_NODE":"226.2041","CENTER_NAME":"EARTH","ELEMENT_SET_NO":"999","REV_AT_EPOCH":"11495","BSTAR":"0.00001764400000","TLE_LINE1":"1 44926U 20001N   22032.84737432 -.00000022  00000-0  17644-4 0  9996","LAUNCH_DATE":"2020-01-07","EPOCH":"2022-02-01T20:20:13.141248","NORAD_CAT_ID":"44926","INCLINATION":"53.0008"},{"LAUNCH_DATE":"2020-01-07","TLE_LINE1":"1 44927U 20001P   22032.85606173 -.00000081  00000-0  13443-4 0  9993","NORAD_CAT_ID":"44927","EPOCH":"2022-02-01T20:32:43.733472","INCLINATION":"53.0529","MEAN_MOTION":"15.06396950","RCS_SIZE":"LARGE","TIME_SYSTEM":"UTC","APOAPSIS":"548.585","ELEMENT_SET_NO":"999","RA_OF_ASC_NODE":"226.1595","GP_ID":"195120656","CENTER_NAME":"EARTH","BSTAR":"0.00001344300000","REV_AT_EPOCH":"11424","MEAN_ELEMENT_THEORY":"SGP4","OBJECT_TYPE":"PAYLOAD","ECCENTRICITY":"0.00019670","EPHEMERIS_TYPE":"0","CLASSIFICATION_TYPE":"U","OBJECT_ID":"2020-001P","TLE_LINE2":"2 44927  53.0529 226.1595 0001967  74.2662 285.8544 15.06396950114244","DECAY_DATE":null,"COUNTRY_CODE":"US","FILE":"3289675","PERIOD":"95.592","ARG_OF_PERICENTER":"74.2662","MEAN_MOTION_DDOT":"0.0000000000000","MEAN_MOTION_DOT":"-0.00000081","REF_FRAME":"TEME","OBJECT_NAME":"STARLINK-1114","MEAN_ANOMALY":"285.8544","SEMIMAJOR_AXIS":"6925.358","PERIAPSIS":"545.861","SITE":"AFETR"}];
